#dP2024  8  6  6  0  0.00000000      96 __u+U IGS20 EXT  IAC
## 2326 194400.00000000   900.00000000 60528 0.2500000000000
+   53   G02G03G04G05G06G07G08G09G10G11G12G13G14G15G16G17G18
+        G19G20G21G22G23G24G25G26G27G28G29G30G31G32R01R02R03
+        R04R05R07R08R09R11R12R14R15R16R17R18R19R20R21R22R24
+        R25R26  0  0  0  0  0  0  0  0  0  0  0  0  0  0  0
+          0  0  0  0  0  0  0  0  0  0  0  0  0  0  0  0  0
++         9  9  7  8  7  9  8  8  8  8  9  8  8  8  8  8  8
++         9  9  8  8  8  8  9  9  9  8  9  8  8  8  9  9  9
++         9  8  9  9  9  8  8  9  8  9  9  9  8  9  9  8  8
++         8  9  0  0  0  0  0  0  0  0  0  0  0  0  0  0  0
++         0  0  0  0  0  0  0  0  0  0  0  0  0  0  0  0  0
%c M  cc GPS ccc cccc cccc cccc cccc ccccc ccccc ccccc ccccc
%c cc cc ccc ccc cccc cccc cccc cccc ccccc ccccc ccccc ccccc
%f  0.0000000  0.000000000  0.00000000000  0.000000000000000
%f  0.0000000  0.000000000  0.00000000000  0.000000000000000
%i    0    0    0    0      0      0      0      0         0
%i    0    0    0    0      0      0      0      0         0
/* IAC                                ULTRA-RAPID PREDICTION
/* S/V CLOCKS ARE ALIGNED TO GNSS TIME                      
/* G:C1WC2W R:C1PC2P E:C1XC5X C:C2IC6I J:C1CC2S             
/* PCV:IGS20_2317 OL/AL:FES2004  NONE     YN ORB:CoN CLK:CoN
*  2024 08 06 19  0  0.00000000
PG02 -14461.792667  20514.034420   8650.473757   -384.237030
PG03 -15769.532579  12527.337426 -17420.661617    489.503424
PG04  -6497.771144  15983.897432 -20139.205442    418.957607
PG05  25856.395286  -5189.731688   3300.079326   -182.314262
PG06   9613.483951  12167.132739 -21483.544850    115.118835
PG07  -3672.414310  24147.602889  10364.950899    -56.104687
PG08 -14780.297305   5435.913325  21319.760064    305.298531
PG09   4266.627204  22500.828957 -13492.232762    303.459522
PG10 -16678.666635 -10884.999400  17945.514256    -86.464433
PG11  17150.198775  -2304.694033 -20106.481352   -717.442302
PG12  18944.550704 -10713.340239 -15469.670454   -528.293578
PG13  17039.971614   4429.538944  19740.864240    669.226846
PG14  12726.440823  13376.879270  19213.341994    466.356464
PG15  13865.787892  -7587.320369  20851.989701    189.607669
PG16 -26795.247009   -669.266623   -109.032182   -215.822781
PG17  13279.269832  22894.808561     81.958488    661.044665
PG18   4209.947393 -23861.987625  10637.322156   -643.858941
PG19  16939.725065  18670.341866  -9168.553913    520.965438
PG20  25396.843589   -901.102608  -7382.801583    371.959854
PG21 -16129.806633  15857.776199  13434.300519    104.478375
PG22  19377.215977  10833.225534  14774.381384    -48.320055
PG23  -3381.288377 -14518.715150  22016.441005    291.277151
PG24  14710.022659 -19608.979269   9257.212588   -485.625566
PG25   7319.393449 -15424.275943 -20623.138714    499.124419
PG26 -23045.259559  -5891.896736 -12345.510626    105.713069
PG27 -18994.159865  -6433.745923  17332.558920    -32.622003
PG28  -9036.766588 -14466.872276 -20369.323203   -362.077072
PG29    581.566284 -21211.419598 -15938.001985   -585.550579
PG30   5002.374241  19240.093679  17637.546215   -344.650550
PG31 -15846.662393  -2473.431902 -21444.573505   -226.122575
PG32 -15808.875821 -21416.062098  -1443.042428   -607.633444
PR01 -20732.409643  -6001.185922 -13589.230923     93.700816
PR02 -10018.699441   5787.165818 -22699.822661    -24.003522
PR03   6425.266716  15492.859709 -19152.565811    105.144881
PR04  18716.820359  16484.544330  -5288.428370    248.701523
PR05  21053.517742   8737.060841  11431.907272    135.680547
PR07  -7039.339519 -15763.642876  18835.728309     88.254550
PR08 -18937.982774 -16338.107825   5157.923757     -6.292451
PR09  20389.015905 -13936.224859  -6531.758948    201.928073
PR11  -9023.534837  -7594.624325 -22599.991977     15.751409
PR12 -22481.040197   4699.392673 -11078.787738     43.329680
PR14  -6982.659274  14174.665777  20035.063436     26.785378
PR15  10645.260341   6809.948130  22184.476933     77.118234
PR16  22380.797002  -4704.201482  11354.028099     28.023517
PR17  -1824.669688  25434.522162  -1343.819132    111.226157
PR18   5440.470271  18713.912026 -16422.283486    155.716586
PR19   9741.865049   4793.111426 -23085.577683   -286.611354
PR20   9700.363892 -17274.456166 -16080.223329   -117.241954
PR21   2291.605063 -25372.524053    811.918819   -123.791034
PR22  -5798.144914 -17992.387818  17153.796060     74.677992
PR24  -9100.164579  18079.073105  15555.907021    -66.748039
PR25   2608.537301 -25303.727321   1695.043855    -99.648768
PR26 -18320.327514 -16494.149685   6529.379679      8.257256
*  2024 08 06 19 15  0.00000000
PG02 -14309.143846  19417.386669  11224.053811   -384.230234
PG03 -17626.409821  12574.072610 -15470.084610    489.517063
PG04  -7874.255664  14061.822053 -21072.045147    418.964380
PG05  26118.767979  -5008.210142    436.820478   -182.315479
PG06   8529.324643  14326.043249 -20584.951562    115.097257
PG07  -4336.752773  24929.300309   7766.379906    -56.098975
PG08 -16224.010440   3487.538394  20710.015665    305.312031
PG09   3116.421556  21296.508432 -15613.795068    303.473419
PG10 -14608.484921 -11163.248773  19500.249459    -86.474056
PG11  16148.566626   -166.354298 -21049.567018   -717.447601
PG12  20555.171668 -10572.827112 -13317.848559   -528.296295
PG13  17968.720955   6439.100335  18351.027283    669.228883
PG14  10487.728033  13651.393913  20322.767191    466.364365
PG15  15544.310106  -5780.818384  20269.537984    189.611518
PG16 -26661.895925   -889.960267  -2932.307759   -215.813356
PG17  13002.611095  22916.197066   2955.369500    661.036577
PG18   4859.582039 -24737.580912   8017.396514   -643.861968
PG19  17203.860054  19517.102640  -6512.059424    520.970142
PG20  24499.016764   -374.314829  -9993.470833    371.959488
PG21 -15821.930249  14233.120717  15609.213217    104.476431
PG22  17630.697695  11030.235127  16765.299269    -48.323911
PG23   -890.309099 -14825.307344  22035.203901    291.285012
PG24  14607.821251 -18297.407213  11709.459924   -485.626358
PG25   9558.742747 -15568.608883 -19529.114092    499.124652
PG26 -21604.617220  -6395.939840 -14502.273487    105.706373
PG27 -19998.287718  -8068.426475  15487.794770    -32.622548
PG28  -8072.036921 -16514.157662 -19182.230794   -362.090720
PG29   1708.362799 -19645.145894 -17775.789751   -585.548616
PG30   4019.560301  20890.511001  15886.840481   -344.644461
PG31 -14811.802193  -4666.514869 -21785.628125   -226.122273
PG32 -15634.484308 -21574.674696   1405.141731   -607.631141
PR01 -22082.770051  -6686.142170 -10868.165885     93.701899
PR02 -12336.472359   4286.037241 -21883.845834    -24.003630
PR03   4399.092289  14069.809827 -20757.602270    105.145638
PR04  18108.696746  15870.172821  -8372.531981    248.703145
PR05  22164.989355   9291.918648   8518.990822    135.681106
PR07  -5067.227911 -14359.281424  20516.246189     88.255387
PR08 -18342.577800 -15753.976798   8236.981710     -6.292546
PR09  20884.723160 -14313.606079  -3430.024196    201.930154
PR11  -6515.328360  -8877.245610 -22992.824676     15.750323
PR12 -21061.692772   4097.550130 -13771.257085     43.330048
PR14  -9045.892382  15322.590437  18284.913541     26.785468
PR15   8167.145543   8046.038562  22812.268220     77.117911
PR16  20932.663900  -4102.367241  14033.486917     28.023781
PR17  -1628.836464  25414.167242   1884.841744    111.229159
PR18   5451.810264  20601.933123 -13975.287324    155.718263
PR19   9488.816868   7594.299186 -22431.228160   -286.612589
PR20   9321.540528 -15180.282203 -18265.602647   -117.241906
PR21   2085.114715 -25287.577008  -2426.185489   -123.793825
PR22  -5710.504989 -19963.241969  14844.504377     74.671270
PR24  -8864.519646  16036.715972  17773.134563    -66.749393
PR25   2464.179113 -25328.898759  -1519.111848    -99.649843
PR26 -17573.256249 -15825.508715   9548.983506      8.259057
EOF
